start=new Date('2022-05-20T00:00:00.000Z').valueOf();
sats=[{"CLASSIFICATION_TYPE":"U","PERIAPSIS":"347.002","REF_FRAME":"TEME","RA_OF_ASC_NODE":"235.0669","DECAY_DATE":null,"REV_AT_EPOCH":"567","OBJECT_NAME":"STARLINK-3744","BSTAR":"-0.00048681000000","ARG_OF_PERICENTER":"10.5194","MEAN_MOTION_DOT":"-0.00068781","PERIOD":"91.526","MEAN_ANOMALY":"72.3970","EPHEMERIS_TYPE":"0","TLE_LINE1":"1 52304U 22041AV  22139.91667824 -.00068781  00000-0 -48681-3 0  9995","TLE_LINE2":"2 52304  53.2130 235.0669 0003570  10.5194  72.3970 15.73325039  5670","SITE":"AFETR","NORAD_CAT_ID":"52304","OBJECT_ID":"2022-041AV","ECCENTRICITY":"0.00035700","GP_ID":"203956621","INCLINATION":"53.2130","EPOCH":"2022-05-19T22:00:00.999936","FILE":"3453417","MEAN_MOTION":"15.73325039","MEAN_ELEMENT_THEORY":"SGP4","SEMIMAJOR_AXIS":"6727.539","RCS_SIZE":"LARGE","ELEMENT_SET_NO":"999","TIME_SYSTEM":"UTC","CENTER_NAME":"EARTH","COUNTRY_CODE":"US","OBJECT_TYPE":"PAYLOAD","MEAN_MOTION_DDOT":"0.0000000000000","LAUNCH_DATE":"2022-04-21","APOAPSIS":"351.805"},{"LAUNCH_DATE":"2022-04-21","APOAPSIS":"352.308","OBJECT_TYPE":"PAYLOAD","COUNTRY_CODE":"US","MEAN_MOTION_DDOT":"0.0000000000000","ELEMENT_SET_NO":"999","RCS_SIZE":"LARGE","TIME_SYSTEM":"UTC","CENTER_NAME":"EARTH","ECCENTRICITY":"0.00028750","GP_ID":"203994873","MEAN_MOTION":"15.72984812","MEAN_ELEMENT_THEORY":"SGP4","SEMIMAJOR_AXIS":"6728.509","INCLINATION":"53.2156","EPOCH":"2022-05-20T04:00:00.999936","FILE":"3453982","EPHEMERIS_TYPE":"0","OBJECT_ID":"2022-041AW","TLE_LINE2":"2 52305  53.2156 233.8321 0002875  13.9703  44.1884 15.72984812  5715","TLE_LINE1":"1 52305U 22041AW  22140.16667824  .00097002  00000-0  69386-3 0  9996","SITE":"AFETR","NORAD_CAT_ID":"52305","MEAN_MOTION_DOT":"0.00097002","MEAN_ANOMALY":"44.1884","PERIOD":"91.546","OBJECT_NAME":"STARLINK-3724","REV_AT_EPOCH":"571","BSTAR":"0.00069386000000","ARG_OF_PERICENTER":"13.9703","PERIAPSIS":"348.439","CLASSIFICATION_TYPE":"U","REF_FRAME":"TEME","DECAY_DATE":null,"RA_OF_ASC_NODE":"233.8321"},{"MEAN_MOTION_DDOT":"0.0000000000000","COUNTRY_CODE":"US","OBJECT_TYPE":"PAYLOAD","APOAPSIS":"351.714","LAUNCH_DATE":"2022-04-21","EPOCH":"2022-05-19T22:00:00.999936","INCLINATION":"53.2131","FILE":"3453417","MEAN_MOTION":"15.73216902","MEAN_ELEMENT_THEORY":"SGP4","SEMIMAJOR_AXIS":"6727.847","ECCENTRICITY":"0.00029760","GP_ID":"203956615","TIME_SYSTEM":"UTC","CENTER_NAME":"EARTH","RCS_SIZE":"LARGE","ELEMENT_SET_NO":"999","PERIOD":"91.532","MEAN_ANOMALY":"69.1096","MEAN_MOTION_DOT":"-0.00002473","TLE_LINE2":"2 52306  53.2131 235.0651 0002976  14.6503  69.1096 15.73216902  5673","TLE_LINE1":"1 52306U 22041AX  22139.91667824 -.00002473  00000-0 -13174-4 0  9993","NORAD_CAT_ID":"52306","SITE":"AFETR","OBJECT_ID":"2022-041AX","EPHEMERIS_TYPE":"0","RA_OF_ASC_NODE":"235.0651","DECAY_DATE":null,"PERIAPSIS":"347.710","CLASSIFICATION_TYPE":"U","REF_FRAME":"TEME","ARG_OF_PERICENTER":"14.6503","BSTAR":"-0.00001317400000","REV_AT_EPOCH":"567","OBJECT_NAME":"STARLINK-3747"},{"LAUNCH_DATE":"2022-04-21","APOAPSIS":"351.911","OBJECT_TYPE":"PAYLOAD","COUNTRY_CODE":"US","MEAN_MOTION_DDOT":"0.0000000000000","ELEMENT_SET_NO":"999","RCS_SIZE":"LARGE","CENTER_NAME":"EARTH","TIME_SYSTEM":"UTC","GP_ID":"203995363","ECCENTRICITY":"0.00030200","MEAN_ELEMENT_THEORY":"SGP4","SEMIMAJOR_AXIS":"6728.015","MEAN_MOTION":"15.73158146","FILE":"3453982","INCLINATION":"53.2133","EPOCH":"2022-05-20T04:00:00.999936","EPHEMERIS_TYPE":"0","OBJECT_ID":"2022-041AY","NORAD_CAT_ID":"52307","SITE":"AFETR","TLE_LINE2":"2 52307  53.2133 233.8311 0003020   6.9127  51.8157 15.73158146  5707","TLE_LINE1":"1 52307U 22041AY  22140.16667824  .00106884  00000-0  75756-3 0  9995","MEAN_MOTION_DOT":"0.00106884","MEAN_ANOMALY":"51.8157","PERIOD":"91.536","OBJECT_NAME":"STARLINK-3755","REV_AT_EPOCH":"570","BSTAR":"0.00075756000000","ARG_OF_PERICENTER":"6.9127","REF_FRAME":"TEME","PERIAPSIS":"347.848","CLASSIFICATION_TYPE":"U","DECAY_DATE":null,"RA_OF_ASC_NODE":"233.8311"},{"CENTER_NAME":"EARTH","TIME_SYSTEM":"UTC","ELEMENT_SET_NO":"999","RCS_SIZE":"LARGE","SEMIMAJOR_AXIS":"6727.880","MEAN_ELEMENT_THEORY":"SGP4","MEAN_MOTION":"15.73205325","FILE":"3454088","INCLINATION":"53.2172","EPOCH":"2022-05-20T04:00:00.999936","GP_ID":"203997017","ECCENTRICITY":"0.00030460","APOAPSIS":"351.794","LAUNCH_DATE":"2022-04-21","MEAN_MOTION_DDOT":"0.0000000000000","OBJECT_TYPE":"PAYLOAD","COUNTRY_CODE":"US","ARG_OF_PERICENTER":"17.3193","BSTAR":"-0.00001892800000","OBJECT_NAME":"STARLINK-3745","REV_AT_EPOCH":"571","DECAY_DATE":null,"RA_OF_ASC_NODE":"233.8247","REF_FRAME":"TEME","PERIAPSIS":"347.696","CLASSIFICATION_TYPE":"U","OBJECT_ID":"2022-041AZ","NORAD_CAT_ID":"52308","SITE":"AFETR","TLE_LINE1":"1 52308U 22041AZ  22140.16667824 -.00003280  00000-0 -18928-4 0  9993","TLE_LINE2":"2 52308  53.2172 233.8247 0003046  17.3193  44.1493 15.73205325  5717","EPHEMERIS_TYPE":"0","MEAN_ANOMALY":"44.1493","PERIOD":"91.533","MEAN_MOTION_DOT":"-0.00003280"},{"MEAN_MOTION_DOT":"-0.00032109","MEAN_ANOMALY":"76.1162","PERIOD":"91.531","EPHEMERIS_TYPE":"0","OBJECT_ID":"2022-041BA","TLE_LINE1":"1 52309U 22041BA  22139.91667824 -.00032109  00000-0 -22480-3 0  9994","TLE_LINE2":"2 52309  53.2130 235.0649 0003424   8.2506  76.1162 15.73233713  5674","SITE":"AFETR","NORAD_CAT_ID":"52309","CLASSIFICATION_TYPE":"U","PERIAPSIS":"347.360","REF_FRAME":"TEME","DECAY_DATE":null,"RA_OF_ASC_NODE":"235.0649","OBJECT_NAME":"STARLINK-3756","REV_AT_EPOCH":"567","BSTAR":"-0.00022480000000","ARG_OF_PERICENTER":"8.2506","OBJECT_TYPE":"PAYLOAD","COUNTRY_CODE":"US","MEAN_MOTION_DDOT":"0.0000000000000","LAUNCH_DATE":"2022-04-21","APOAPSIS":"351.968","ECCENTRICITY":"0.00034240","GP_ID":"203956646","MEAN_MOTION":"15.73233713","MEAN_ELEMENT_THEORY":"SGP4","SEMIMAJOR_AXIS":"6727.799","INCLINATION":"53.2130","EPOCH":"2022-05-19T22:00:00.999936","FILE":"3453419","ELEMENT_SET_NO":"999","RCS_SIZE":"LARGE","TIME_SYSTEM":"UTC","CENTER_NAME":"EARTH"},{"OBJECT_TYPE":"PAYLOAD","COUNTRY_CODE":"US","MEAN_MOTION_DDOT":"0.0000000000000","LAUNCH_DATE":"2022-04-21","APOAPSIS":"351.828","ECCENTRICITY":"0.00032720","GP_ID":"203956335","MEAN_MOTION":"15.73246866","MEAN_ELEMENT_THEORY":"SGP4","SEMIMAJOR_AXIS":"6727.762","EPOCH":"2022-05-19T22:00:00.999936","INCLINATION":"53.2130","FILE":"3453419","ELEMENT_SET_NO":"999","RCS_SIZE":"LARGE","TIME_SYSTEM":"UTC","CENTER_NAME":"EARTH","MEAN_MOTION_DOT":"-0.00071281","MEAN_ANOMALY":"77.0677","PERIOD":"91.530","EPHEMERIS_TYPE":"0","OBJECT_ID":"2022-041BB","TLE_LINE2":"2 52310  53.2130 235.0600 0003272   9.0777  77.0677 15.73246866  5677","TLE_LINE1":"1 52310U 22041BB  22139.91667824 -.00071281  00000-0 -50655-3 0  9995","SITE":"AFETR","NORAD_CAT_ID":"52310","PERIAPSIS":"347.425","CLASSIFICATION_TYPE":"U","REF_FRAME":"TEME","DECAY_DATE":null,"RA_OF_ASC_NODE":"235.0600","OBJECT_NAME":"STARLINK-3688","REV_AT_EPOCH":"567","ARG_OF_PERICENTER":"9.0777","BSTAR":"-0.00050655000000"},{"FILE":"3453984","INCLINATION":"53.2165","EPOCH":"2022-05-20T04:00:00.999936","MEAN_ELEMENT_THEORY":"SGP4","SEMIMAJOR_AXIS":"6728.850","MEAN_MOTION":"15.72865186","GP_ID":"203995392","ECCENTRICITY":"0.00033900","CENTER_NAME":"EARTH","TIME_SYSTEM":"UTC","RCS_SIZE":"LARGE","ELEMENT_SET_NO":"999","MEAN_MOTION_DDOT":"0.0000000000000","COUNTRY_CODE":"US","OBJECT_TYPE":"PAYLOAD","LAUNCH_DATE":"2022-04-21","APOAPSIS":"352.996","RA_OF_ASC_NODE":"233.8239","DECAY_DATE":null,"REF_FRAME":"TEME","PERIAPSIS":"348.434","CLASSIFICATION_TYPE":"U","BSTAR":"0.00367170000000","ARG_OF_PERICENTER":"19.1562","REV_AT_EPOCH":"571","OBJECT_NAME":"STARLINK-3750","PERIOD":"91.553","MEAN_ANOMALY":"43.0913","MEAN_MOTION_DOT":"0.00541522","NORAD_CAT_ID":"52311","SITE":"AFETR","TLE_LINE1":"1 52311U 22041BC  22140.16667824  .00541522  00000-0  36717-2 0  9995","TLE_LINE2":"2 52311  53.2165 233.8239 0003390  19.1562  43.0913 15.72865186  5717","OBJECT_ID":"2022-041BC","EPHEMERIS_TYPE":"0"},{"APOAPSIS":"351.793","LAUNCH_DATE":"2022-04-21","COUNTRY_CODE":"US","OBJECT_TYPE":"PAYLOAD","MEAN_MOTION_DDOT":"0.0000000000000","RCS_SIZE":"LARGE","ELEMENT_SET_NO":"999","CENTER_NAME":"EARTH","TIME_SYSTEM":"UTC","GP_ID":"203957492","ECCENTRICITY":"0.00032260","FILE":"3453446","EPOCH":"2022-05-19T22:00:00.999936","INCLINATION":"53.2131","SEMIMAJOR_AXIS":"6727.758","MEAN_ELEMENT_THEORY":"SGP4","MEAN_MOTION":"15.73248268","EPHEMERIS_TYPE":"0","SITE":"AFETR","NORAD_CAT_ID":"52312","TLE_LINE2":"2 52312  53.2131 235.0582 0003226   5.6287  81.1839 15.73248268  5670","TLE_LINE1":"1 52312U 22041BD  22139.91667824 -.00018328  00000-0 -12613-3 0  9992","OBJECT_ID":"2022-041BD","MEAN_MOTION_DOT":"-0.00018328","PERIOD":"91.530","MEAN_ANOMALY":"81.1839","REV_AT_EPOCH":"567","OBJECT_NAME":"STARLINK-3752","BSTAR":"-0.00012613000000","ARG_OF_PERICENTER":"5.6287","REF_FRAME":"TEME","CLASSIFICATION_TYPE":"U","PERIAPSIS":"347.452","RA_OF_ASC_NODE":"235.0582","DECAY_DATE":null},{"LAUNCH_DATE":"2022-04-21","APOAPSIS":"351.677","MEAN_MOTION_DDOT":"0.0000000000000","OBJECT_TYPE":"PAYLOAD","COUNTRY_CODE":"US","TIME_SYSTEM":"UTC","CENTER_NAME":"EARTH","ELEMENT_SET_NO":"999","RCS_SIZE":"LARGE","MEAN_MOTION":"15.73228586","SEMIMAJOR_AXIS":"6727.814","MEAN_ELEMENT_THEORY":"SGP4","INCLINATION":"53.2134","EPOCH":"2022-05-19T22:00:00.999936","FILE":"3453812","ECCENTRICITY":"0.00029700","GP_ID":"203990932","OBJECT_ID":"2022-041BE","TLE_LINE1":"1 52313U 22041BE  22139.91667824 -.00065746  00000-0 -46697-3 0  9998","TLE_LINE2":"2 52313  53.2134 235.0572 0002970   9.1169  78.3255 15.73228586  1303","SITE":"AFETR","NORAD_CAT_ID":"52313","EPHEMERIS_TYPE":"0","MEAN_ANOMALY":"78.3255","PERIOD":"91.532","MEAN_MOTION_DOT":"-0.00065746","BSTAR":"-0.00046697000000","ARG_OF_PERICENTER":"9.1169","OBJECT_NAME":"STARLINK-3749","REV_AT_EPOCH":"130","DECAY_DATE":null,"RA_OF_ASC_NODE":"235.0572","CLASSIFICATION_TYPE":"U","PERIAPSIS":"347.681","REF_FRAME":"TEME"}];
